OBJECT_NAME,OBJECT_ID,EPOCH,MEAN_MOTION,ECCENTRICITY,INCLINATION,RA_OF_ASC_NODE,ARG_OF_PERICENTER,MEAN_ANOMALY,EPHEMERIS_TYPE,CLASSIFICATION_TYPE,NORAD_CAT_ID,ELEMENT_SET_NO,REV_AT_EPOCH,BSTAR,MEAN_MOTION_DOT,MEAN_MOTION_DDOT
HODOYOSHI-4,2014-033B,2026-07-17T18:17:28.421664,14.88191706,.0022836,97.5457,22.1106,200.7708,159.2583,0,U,40011,999,65335,.21203E-4,.144E-5,0
DEIMOS-2,2014-033D,2026-07-17T17:29:46.470048,14.93798461,.0001209,97.5781,72.1393,110.4879,249.6471,0,U,40013,999,64228,.74184E-4,.732E-5,0
HODOYOSHI-3,2014-033F,2026-07-17T10:20:21.171840,14.85439741,.0031343,97.6448,0.2599,254.2011,105.5748,0,U,40015,999,65211,.63241E-4,.496E-5,0
SPOT 7,2014-034A,2026-07-17T17:27:28.816704,14.60982182,.0001597,98.0611,260.4301,93.8918,266.2466,0,U,40053,999,64159,.47745E-4,.189E-5,0
SKYSAT-B,2014-037D,2026-07-17T15:40:24.347712,14.88094841,.0005772,98.3855,159.3594,165.2666,194.8718,0,U,40072,999,65049,.66203E-4,.547E-5,0
WORLDVIEW-3 (WV-3),2014-048A,2026-07-17T16:33:50.020128,14.85066247,.000149,97.8555,273.1006,151.9252,208.2044,0,U,40115,999,64643,.43759E-4,.32E-5,0
GAOFEN-2,2014-049A,2026-07-17T17:11:54.767040,14.80927753,.0008362,98.0093,262.8925,127.4383,232.7591,0,U,40118,999,64375,-.11334E-4,-.141E-5,0
YAOGAN-21,2014-053A,2026-07-17T16:59:14.970624,15.26780066,.0007519,97.1450,237.6391,358.9400,1.1823,0,U,40143,999,65961,.15629E-3,.4047E-4,0
YAOGAN-22,2014-063A,2026-07-16T23:56:40.782336,13.15531563,.0006888,100.7764,349.7708,121.3776,238.8010,0,U,40275,999,56373,.44075E-4,-.3E-6,0
ASNARO,2014-070A,2026-07-17T17:06:10.014624,15.19402283,.0004821,97.3439,274.0062,81.0324,279.1456,0,U,40298,999,64864,.23818E-3,.4977E-4,0
YAOGAN-24,2014-072A,2026-07-17T17:18:14.046624,14.76119674,.0014801,98.1532,336.3195,161.6896,198.4849,0,U,40310,999,62822,.25202E-4,.121E-5,0
CBERS 4,2014-079A,2026-07-17T16:56:36.843936,14.35516732,.000069,98.3513,254.5776,55.1977,304.9274,0,U,40336,999,60833,.5914E-4,.128E-5,0
YAOGAN-26,2014-088A,2026-07-17T17:02:27.726432,15.48505083,.000147,97.0651,198.2298,325.1448,34.9707,0,U,40362,999,64242,.15433E-3,.8119E-4,0
SMAP,2015-003A,2026-07-17T15:27:08.801568,14.63390221,.0001616,98.1285,205.3081,93.9916,266.1471,0,U,40376,999,61207,.4016E-4,.161E-5,0
KOMPSAT-3A,2015-014A,2026-07-17T16:25:27.244704,15.55528188,.0055968,97.6897,192.3133,66.9112,293.8027,0,U,40536,999,62655,.26651E-3,.19449E-3,0
SENTINEL-2A,2015-028A,2026-07-17T16:54:03.996288,14.30814845,.0001302,98.5677,273.1211,93.9309,266.2023,0,U,40697,999,57809,.319E-4,.4E-6,0
GAOFEN-8,2015-030A,2026-07-17T16:37:35.380704,15.47005173,.000994,97.6892,33.9173,87.9572,272.2815,0,U,40701,999,61616,.25296E-3,.12702E-3,0
CARBONITE 1 (CBNT-1),2015-032D,2026-07-17T16:00:32.145408,14.83674456,.0014079,97.6520,15.4602,188.4369,171.6611,0,U,40718,999,59386,.17372E-3,.1386E-4,0
YAOGAN-27,2015-040A,2026-07-17T17:46:58.581984,13.16070253,.0008604,100.1171,183.8004,139.6628,220.5125,0,U,40878,999,52168,-.12818E-2,-.529E-5,0
GAOFEN-9 01,2015-047A,2026-07-17T16:43:26.715072,14.82937698,.0028285,97.6264,233.0039,42.6095,317.7307,0,U,40894,999,58471,.59561E-4,.435E-5,0
YAOGAN-28,2015-064A,2026-07-17T17:11:51.861408,15.27777963,.0012037,97.3116,336.3699,85.3626,274.8988,0,U,41026,999,59534,.12646E-3,.3364E-4,0
YAOGAN-29,2015-069A,2026-07-17T17:46:28.151040,14.83106022,.000056,98.0015,227.4201,7.1608,352.9613,0,U,41038,999,57515,-.41001E-4,-.388E-5,0
KENT RIDGE 1,2015-077B,2026-07-17T17:50:40.140960,15.23291734,.0008264,14.9805,38.7088,310.6997,49.2607,0,U,41167,999,58576,.63799E-4,.232E-4,0
GAOFEN-4,2015-083A,2026-07-17T18:43:43.891968,1.00271727,.0004182,0.4346,83.8445,123.4605,114.9209,0,U,41194,999,3883,0,-.344E-5,0
JASON-3,2016-002A,2026-07-17T16:22:36.531264,12.87628771,.0008156,66.0416,61.7231,270.6685,89.3399,0,U,41240,999,49117,.1035E-3,-.36E-6,0
SENTINEL-3A,2016-011A,2026-07-17T15:40:12.000288,14.26740203,.0001338,98.6236,265.5967,89.5014,270.6319,0,U,41335,999,54240,.35147E-4,.41E-6,0
ZIYUAN 3-02 (ZY 3-02),2016-033A,2026-07-17T17:00:44.590752,15.21448272,.0014355,97.3824,273.8966,176.1695,183.9654,0,U,41556,999,56262,.11698E-3,.2565E-4,0
CARTOSAT-2C,2016-040A,2026-07-17T16:29:54.079872,15.19277062,.0009373,97.4465,258.2428,37.5396,322.6492,0,U,41599,999,55834,.1308E-3,.2693E-4,0
SKYSAT-C1,2016-040C,2026-07-17T01:01:50.629440,15.36766876,.00002619,96.9547,228.1510,236.3178,123.8043,0,U,41601,999,56245,.14289609E-3,.5058E-4,0
LAPAN-A3,2016-040E,2026-07-17T17:38:53.037312,15.33286558,.0008257,97.1506,193.8834,264.9391,95.0910,0,U,41603,999,55949,.5213E-4,.1603E-4,0
GAOFEN-3,2016-049A,2026-07-17T17:58:35.758272,14.42218193,.0001766,98.4013,206.0742,82.7708,277.3682,0,U,41727,999,52305,-.42081E-4,-.182E-5,0
