HODOYOSHI-4             
1 40011U 14033B   26198.76213451  .00000144  00000+0  21203-4 0  9992
2 40011  97.5457  22.1106 0022836 200.7708 159.2583 14.88191706653352
DEIMOS-2                
1 40013U 14033D   26198.72901007  .00000732  00000+0  74184-4 0  9990
2 40013  97.5781  72.1393 0001209 110.4879 249.6471 14.93798461642281
HODOYOSHI-3             
1 40015U 14033F   26198.43080060  .00000496  00000+0  63241-4 0  9996
2 40015  97.6448   0.2599 0031343 254.2011 105.5748 14.85439741652115
SPOT 7                  
1 40053U 14034A   26198.72741686  .00000189  00000+0  47745-4 0  9999
2 40053  98.0611 260.4301 0001597  93.8918 266.2466 14.60982182641593
SKYSAT-B                
1 40072U 14037D   26198.65305958  .00000547  00000+0  66203-4 0  9991
2 40072  98.3855 159.3594 0005772 165.2666 194.8718 14.88094841650491
WORLDVIEW-3 (WV-3)      
1 40115U 14048A   26198.69016227  .00000320  00000+0  43759-4 0  9993
2 40115  97.8555 273.1006 0001490 151.9252 208.2044 14.85066247646436
GAOFEN-2                
1 40118U 14049A   26198.71660610 -.00000141  00000+0 -11334-4 0  9998
2 40118  98.0093 262.8925 0008362 127.4383 232.7591 14.80927753643756
YAOGAN-21               
1 40143U 14053A   26198.70781216  .00004047  00000+0  15629-3 0  9993
2 40143  97.1450 237.6391 0007519 358.9400   1.1823 15.26780066659615
YAOGAN-22               
1 40275U 14063A   26197.99769424 -.00000030  00000+0  44075-4 0  9994
2 40275 100.7764 349.7708 0006888 121.3776 238.8010 13.15531563563739
ASNARO                  
1 40298U 14070A   26198.71261591  .00004977  00000+0  23818-3 0  9994
2 40298  97.3439 274.0062 0004821  81.0324 279.1456 15.19402283648641
YAOGAN-24               
1 40310U 14072A   26198.72099591  .00000121  00000+0  25202-4 0  9998
2 40310  98.1532 336.3195 0014801 161.6896 198.4849 14.76119674628228
CBERS 4                 
1 40336U 14079A   26198.70598199  .00000128  00000+0  59140-4 0  9994
2 40336  98.3513 254.5776 0000690  55.1977 304.9274 14.35516732608338
YAOGAN-26               
1 40362U 14088A   26198.71004313  .00008119  00000+0  15433-3 0  9998
2 40362  97.0651 198.2298 0001470 325.1448  34.9707 15.48505083642420
SMAP                    
1 40376U 15003A   26198.64385187  .00000161  00000+0  40160-4 0  9999
2 40376  98.1285 205.3081 0001616  93.9916 266.1471 14.63390221612079
KOMPSAT-3A              
1 40536U 15014A   26198.68434311  .00019449  00000+0  26651-3 0  9994
2 40536  97.6897 192.3133 0055968  66.9112 293.8027 15.55528188626559
SENTINEL-2A             
1 40697U 15028A   26198.70421292  .00000040  00000+0  31900-4 0  9995
2 40697  98.5677 273.1211 0001302  93.9309 266.2023 14.30814845578094
GAOFEN-8                
1 40701U 15030A   26198.69277061  .00012702  00000+0  25296-3 0  9993
2 40701  97.6892  33.9173 0009940  87.9572 272.2815 15.47005173616161
CARBONITE 1 (CBNT-1)    
1 40718U 15032D   26198.66703872  .00001386  00000+0  17372-3 0  9996
2 40718  97.6520  15.4602 0014079 188.4369 171.6611 14.83674456593861
YAOGAN-27               
1 40878U 15040A   26198.74095581 -.00000529  00000+0 -12818-2 0  9991
2 40878 100.1171 183.8004 0008604 139.6628 220.5125 13.16070253521684
GAOFEN-9 01             
1 40894U 15047A   26198.69683698  .00000435  00000+0  59561-4 0  9994
2 40894  97.6264 233.0039 0028285  42.6095 317.7307 14.82937698584712
YAOGAN-28               
1 41026U 15064A   26198.71657247  .00003364  00000+0  12646-3 0  9991
2 41026  97.3116 336.3699 0012037  85.3626 274.8988 15.27777963595340
YAOGAN-29               
1 41038U 15069A   26198.74060360 -.00000388  00000+0 -41001-4 0  9999
2 41038  98.0015 227.4201 0000560   7.1608 352.9613 14.83106022575151
KENT RIDGE 1            
1 41167U 15077B   26198.74352015  .00002320  00000+0  63799-4 0  9996
2 41167  14.9805  38.7088 0008264 310.6997  49.2607 15.23291734585763
GAOFEN-4                
1 41194U 15083A   26198.78036912 -.00000344  00000+0  00000+0 0  9998
2 41194   0.4346  83.8445 0004182 123.4605 114.9209  1.00271727 38831
JASON-3                 
1 41240U 16002A   26198.68236726 -.00000036  00000+0  10350-3 0  9997
2 41240  66.0416  61.7231 0008156 270.6685  89.3399 12.87628771491172
SENTINEL-3A             
1 41335U 16011A   26198.65291667  .00000041  00000+0  35147-4 0  9991
2 41335  98.6236 265.5967 0001338  89.5014 270.6319 14.26740203542406
ZIYUAN 3-02 (ZY 3-02)   
1 41556U 16033A   26198.70884943  .00002565  00000+0  11698-3 0  9998
2 41556  97.3824 273.8966 0014355 176.1695 183.9654 15.21448272562623
CARTOSAT-2C             
1 41599U 16040A   26198.68743148  .00002693  00000+0  13080-3 0  9990
2 41599  97.4465 258.2428 0009373  37.5396 322.6492 15.19277062558344
SKYSAT-C1               
1 41601U 16040C   26198.04294710  .00005058  00000+0  14290-3 0  9992
2 41601  96.9547 228.1510 0000261 236.3178 123.8043 15.36766876562450
LAPAN-A3                
1 41603U 16040E   26198.73533608  .00001603  00000+0  52130-4 0  9990
2 41603  97.1506 193.8834 0008257 264.9391  95.0910 15.33286558559498
GAOFEN-3                
1 41727U 16049A   26198.74902498 -.00000182  00000+0 -42081-4 0  9991
2 41727  98.4013 206.0742 0001766  82.7708 277.3682 14.42218193523056
